1 27424U 02022A   10193.86013221 +.00000026 +00000-0 +15759-4 0 06897
2 27424 098.1877 134.7413 0001849 058.4427 301.6950 14.57130629435651